start=new Date('2022-11-10T00:00:00.000Z').valueOf();
sats=[{"DECAY_DATE":null,"TLE_LINE1":"1 50826U 22001Z   22313.49084134 -.00000355  00000-0 -41556-5 0  9991","MEAN_MOTION_DOT":"-0.00000355","INCLINATION":"53.2176","REF_FRAME":"TEME","TLE_LINE2":"2 50826  53.2176 228.8429 0002584  34.1923 325.9235 15.08838836 48082","OBJECT_ID":"2022-001Z","PERIOD":"95.438","SITE":"AFETR","ECCENTRICITY":"0.00025840","TIME_SYSTEM":"UTC","EPHEMERIS_TYPE":"0","MEAN_ANOMALY":"325.9235","NORAD_CAT_ID":"50826","MEAN_ELEMENT_THEORY":"SGP4","EPOCH":"2022-11-09T11:46:48.691776","RCS_SIZE":"LARGE","SEMIMAJOR_AXIS":"6917.884","COUNTRY_CODE":"US","OBJECT_TYPE":"PAYLOAD","LAUNCH_DATE":"2022-01-06","BSTAR":"-0.00000415560000","MEAN_MOTION":"15.08838836","ELEMENT_SET_NO":"999","CLASSIFICATION_TYPE":"U","GP_ID":"217250108","CENTER_NAME":"EARTH","RA_OF_ASC_NODE":"228.8429","OBJECT_NAME":"STARLINK-3337","FILE":"3649911","PERIAPSIS":"537.961","REV_AT_EPOCH":"4808","APOAPSIS":"541.537","ARG_OF_PERICENTER":"34.1923","MEAN_MOTION_DDOT":"0.0000000000000"},{"TLE_LINE2":"2 50827  53.2169 234.6580 0002251  36.0206 324.0938 15.08852451 46609","INCLINATION":"53.2169","TLE_LINE1":"1 50827U 22001AA  22312.19914887  .00005073  00000-0  33650-3 0  9999","DECAY_DATE":null,"MEAN_MOTION_DOT":"0.00005073","REF_FRAME":"TEME","OBJECT_ID":"2022-001AA","SITE":"AFETR","PERIOD":"95.437","ECCENTRICITY":"0.00022510","TIME_SYSTEM":"UTC","NORAD_CAT_ID":"50827","MEAN_ANOMALY":"324.0938","EPHEMERIS_TYPE":"0","MEAN_ELEMENT_THEORY":"SGP4","EPOCH":"2022-11-08T04:46:46.462368","SEMIMAJOR_AXIS":"6917.842","RCS_SIZE":"LARGE","COUNTRY_CODE":"US","OBJECT_TYPE":"PAYLOAD","LAUNCH_DATE":"2022-01-06","MEAN_MOTION":"15.08852451","BSTAR":"0.00033650000000","ELEMENT_SET_NO":"999","CLASSIFICATION_TYPE":"U","GP_ID":"217172679","CENTER_NAME":"EARTH","RA_OF_ASC_NODE":"234.6580","FILE":"3648805","OBJECT_NAME":"STARLINK-3329","PERIAPSIS":"538.150","REV_AT_EPOCH":"4660","APOAPSIS":"541.265","ARG_OF_PERICENTER":"36.0206","MEAN_MOTION_DDOT":"0.0000000000000"},{"TIME_SYSTEM":"UTC","EPHEMERIS_TYPE":"0","NORAD_CAT_ID":"50828","MEAN_ANOMALY":"328.9622","MEAN_ELEMENT_THEORY":"SGP4","TLE_LINE1":"1 50828U 22001AB  22313.05753726  .00009520  00000-0  61478-3 0  9999","INCLINATION":"53.2172","DECAY_DATE":null,"MEAN_MOTION_DOT":"0.00009520","REF_FRAME":"TEME","TLE_LINE2":"2 50828  53.2172 230.8050 0002472  31.1517 328.9622 15.08879577 46588","OBJECT_ID":"2022-001AB","SITE":"AFETR","PERIOD":"95.435","ECCENTRICITY":"0.00024720","LAUNCH_DATE":"2022-01-06","MEAN_MOTION":"15.08879577","BSTAR":"0.00061478000000","EPOCH":"2022-11-09T01:22:51.219264","RCS_SIZE":"LARGE","SEMIMAJOR_AXIS":"6917.759","COUNTRY_CODE":"US","OBJECT_TYPE":"PAYLOAD","GP_ID":"217239224","RA_OF_ASC_NODE":"230.8050","CENTER_NAME":"EARTH","ELEMENT_SET_NO":"999","CLASSIFICATION_TYPE":"U","ARG_OF_PERICENTER":"31.1517","MEAN_MOTION_DDOT":"0.0000000000000","FILE":"3649526","OBJECT_NAME":"STARLINK-3290","PERIAPSIS":"537.914","REV_AT_EPOCH":"4658","APOAPSIS":"541.334"},{"RCS_SIZE":"LARGE","SEMIMAJOR_AXIS":"6917.854","EPOCH":"2022-11-09T11:09:42.060096","OBJECT_TYPE":"PAYLOAD","COUNTRY_CODE":"US","LAUNCH_DATE":"2022-01-06","MEAN_MOTION":"15.08848564","BSTAR":"0.00061757000000","OBJECT_ID":"2022-001AC","TLE_LINE1":"1 50829U 22001AC  22313.46507014  .00009557  00000-0  61757-3 0  9992","DECAY_DATE":null,"INCLINATION":"53.2182","MEAN_MOTION_DOT":"0.00009557","REF_FRAME":"TEME","TLE_LINE2":"2 50829  53.2182 228.9777 0002320  31.1446 328.9683 15.08848564 46799","ECCENTRICITY":"0.00023200","PERIOD":"95.437","SITE":"AFETR","TIME_SYSTEM":"UTC","MEAN_ELEMENT_THEORY":"SGP4","EPHEMERIS_TYPE":"0","NORAD_CAT_ID":"50829","MEAN_ANOMALY":"328.9683","FILE":"3649526","PERIAPSIS":"538.114","OBJECT_NAME":"STARLINK-3294","APOAPSIS":"541.324","REV_AT_EPOCH":"4679","MEAN_MOTION_DDOT":"0.0000000000000","ARG_OF_PERICENTER":"31.1446","ELEMENT_SET_NO":"999","CLASSIFICATION_TYPE":"U","GP_ID":"217237984","RA_OF_ASC_NODE":"228.9777","CENTER_NAME":"EARTH"},{"ARG_OF_PERICENTER":"43.8553","MEAN_MOTION_DDOT":"0.0000000000000","REV_AT_EPOCH":"4671","APOAPSIS":"541.177","FILE":"3650001","OBJECT_NAME":"STARLINK-3278","PERIAPSIS":"538.343","RA_OF_ASC_NODE":"237.4105","CENTER_NAME":"EARTH","GP_ID":"217276074","CLASSIFICATION_TYPE":"U","ELEMENT_SET_NO":"999","BSTAR":"-0.00029425000000","LAUNCH_DATE":"2022-01-06","MEAN_MOTION":"15.08835287","COUNTRY_CODE":"US","OBJECT_TYPE":"PAYLOAD","EPOCH":"2022-11-09T19:31:48.083808","RCS_SIZE":"LARGE","SEMIMAJOR_AXIS":"6917.895","EPHEMERIS_TYPE":"0","NORAD_CAT_ID":"50830","MEAN_ANOMALY":"316.2601","MEAN_ELEMENT_THEORY":"SGP4","TIME_SYSTEM":"UTC","SITE":"AFETR","PERIOD":"95.438","ECCENTRICITY":"0.00020480","DECAY_DATE":null,"TLE_LINE1":"1 50830U 22001AD  22313.81375097 -.00004968  00000-0 -29425-3 0  9996","REF_FRAME":"TEME","MEAN_MOTION_DOT":"-0.00004968","INCLINATION":"53.2149","TLE_LINE2":"2 50830  53.2149 237.4105 0002048  43.8553 316.2601 15.08835287 46710","OBJECT_ID":"2022-001AD"},{"RCS_SIZE":"LARGE","SEMIMAJOR_AXIS":"6917.796","EPOCH":"2022-11-09T11:42:51.014016","OBJECT_TYPE":"PAYLOAD","COUNTRY_CODE":"US","MEAN_MOTION":"15.08867724","LAUNCH_DATE":"2022-01-06","BSTAR":"-0.00014068000000","OBJECT_ID":"2022-001AE","DECAY_DATE":null,"TLE_LINE1":"1 50831U 22001AE  22313.48809044 -.00002528  00000-0 -14068-3 0  9991","INCLINATION":"53.2175","MEAN_MOTION_DOT":"-0.00002528","REF_FRAME":"TEME","TLE_LINE2":"2 50831  53.2175 228.8669 0002027  11.9345 348.1694 15.08867724 48079","ECCENTRICITY":"0.00020270","PERIOD":"95.436","SITE":"AFETR","TIME_SYSTEM":"UTC","MEAN_ELEMENT_THEORY":"SGP4","EPHEMERIS_TYPE":"0","MEAN_ANOMALY":"348.1694","NORAD_CAT_ID":"50831","FILE":"3649919","PERIAPSIS":"538.258","OBJECT_NAME":"STARLINK-3299","APOAPSIS":"541.063","REV_AT_EPOCH":"4807","MEAN_MOTION_DDOT":"0.0000000000000","ARG_OF_PERICENTER":"11.9345","ELEMENT_SET_NO":"999","CLASSIFICATION_TYPE":"U","GP_ID":"217250682","CENTER_NAME":"EARTH","RA_OF_ASC_NODE":"228.8669"},{"CLASSIFICATION_TYPE":"U","ELEMENT_SET_NO":"999","RA_OF_ASC_NODE":"237.1320","CENTER_NAME":"EARTH","GP_ID":"217275074","REV_AT_EPOCH":"4672","APOAPSIS":"540.679","PERIAPSIS":"538.946","FILE":"3650001","OBJECT_NAME":"STARLINK-3328","ARG_OF_PERICENTER":"32.4457","MEAN_MOTION_DDOT":"0.0000000000000","SITE":"AFETR","PERIOD":"95.439","ECCENTRICITY":"0.00012530","TLE_LINE2":"2 50832  53.2185 237.1320 0001253  32.4457 327.6612 15.08818031 46729","TLE_LINE1":"1 50832U 22001AF  22313.87630792 -.00015493  00000-0 -95802-3 0  9997","MEAN_MOTION_DOT":"-0.00015493","DECAY_DATE":null,"REF_FRAME":"TEME","INCLINATION":"53.2185","OBJECT_ID":"2022-001AF","NORAD_CAT_ID":"50832","MEAN_ANOMALY":"327.6612","EPHEMERIS_TYPE":"0","MEAN_ELEMENT_THEORY":"SGP4","TIME_SYSTEM":"UTC","COUNTRY_CODE":"US","OBJECT_TYPE":"PAYLOAD","EPOCH":"2022-11-09T21:01:53.004288","SEMIMAJOR_AXIS":"6917.948","RCS_SIZE":"LARGE","MEAN_MOTION":"15.08818031","LAUNCH_DATE":"2022-01-06","BSTAR":"-0.00095802000000"},{"COUNTRY_CODE":"US","OBJECT_TYPE":"PAYLOAD","EPOCH":"2022-11-09T19:49:01.908192","SEMIMAJOR_AXIS":"6917.947","RCS_SIZE":"LARGE","BSTAR":"-0.00024045000000","LAUNCH_DATE":"2022-01-06","MEAN_MOTION":"15.08818255","SITE":"AFETR","PERIOD":"95.439","ECCENTRICITY":"0.00014980","TLE_LINE2":"2 50833  53.2185 227.3524 0001498 103.8849 256.2309 15.08818255 46858","INCLINATION":"53.2185","TLE_LINE1":"1 50833U 22001AG  22313.82571653 -.00004110  00000-0 -24045-3 0  9998","DECAY_DATE":null,"MEAN_MOTION_DOT":"-0.00004110","REF_FRAME":"TEME","OBJECT_ID":"2022-001AG","NORAD_CAT_ID":"50833","MEAN_ANOMALY":"256.2309","EPHEMERIS_TYPE":"0","MEAN_ELEMENT_THEORY":"SGP4","TIME_SYSTEM":"UTC","REV_AT_EPOCH":"4685","APOAPSIS":"540.848","OBJECT_NAME":"STARLINK-3316","FILE":"3650001","PERIAPSIS":"538.776","ARG_OF_PERICENTER":"103.8849","MEAN_MOTION_DDOT":"0.0000000000000","CLASSIFICATION_TYPE":"U","ELEMENT_SET_NO":"999","CENTER_NAME":"EARTH","RA_OF_ASC_NODE":"227.3524","GP_ID":"217275324"},{"SEMIMAJOR_AXIS":"6917.854","RCS_SIZE":"LARGE","EPOCH":"2022-11-09T19:10:35.876640","OBJECT_TYPE":"PAYLOAD","COUNTRY_CODE":"US","BSTAR":"0.00065805000000","LAUNCH_DATE":"2022-01-06","MEAN_MOTION":"15.08848640","OBJECT_ID":"2022-001AH","TLE_LINE2":"2 50834  53.2157 237.4717 0002391  40.7218 319.3953 15.08848640 46707","MEAN_MOTION_DOT":"0.00010203","TLE_LINE1":"1 50834U 22001AH  22313.79902635  .00010203  00000-0  65805-3 0  9990","DECAY_DATE":null,"INCLINATION":"53.2157","REF_FRAME":"TEME","ECCENTRICITY":"0.00023910","PERIOD":"95.437","SITE":"AFETR","TIME_SYSTEM":"UTC","MEAN_ELEMENT_THEORY":"SGP4","NORAD_CAT_ID":"50834","MEAN_ANOMALY":"319.3953","EPHEMERIS_TYPE":"0","PERIAPSIS":"538.065","FILE":"3650001","OBJECT_NAME":"STARLINK-3331","APOAPSIS":"541.373","REV_AT_EPOCH":"4670","MEAN_MOTION_DDOT":"0.0000000000000","ARG_OF_PERICENTER":"40.7218","ELEMENT_SET_NO":"999","CLASSIFICATION_TYPE":"U","GP_ID":"217275574","RA_OF_ASC_NODE":"237.4717","CENTER_NAME":"EARTH"},{"CLASSIFICATION_TYPE":"U","ELEMENT_SET_NO":"999","CENTER_NAME":"EARTH","RA_OF_ASC_NODE":"238.6867","GP_ID":"217250792","REV_AT_EPOCH":"4792","APOAPSIS":"541.228","OBJECT_NAME":"STARLINK-3310","FILE":"3649936","PERIAPSIS":"538.230","ARG_OF_PERICENTER":"34.5332","MEAN_MOTION_DDOT":"0.0000000000000","PERIOD":"95.437","SITE":"AFETR","ECCENTRICITY":"0.00021670","MEAN_MOTION_DOT":"-0.00001797","TLE_LINE1":"1 50835U 22001AJ  22313.52671452 -.00001797  00000-0 -94810-4 0  9991","DECAY_DATE":null,"INCLINATION":"53.2166","REF_FRAME":"TEME","TLE_LINE2":"2 50835  53.2166 238.6867 0002167  34.5332 325.5800 15.08845253 47928","OBJECT_ID":"2022-001AJ","EPHEMERIS_TYPE":"0","NORAD_CAT_ID":"50835","MEAN_ANOMALY":"325.5800","MEAN_ELEMENT_THEORY":"SGP4","TIME_SYSTEM":"UTC","COUNTRY_CODE":"US","OBJECT_TYPE":"PAYLOAD","EPOCH":"2022-11-09T12:38:28.134528","RCS_SIZE":"LARGE","SEMIMAJOR_AXIS":"6917.864","LAUNCH_DATE":"2022-01-06","BSTAR":"-0.00009481000000","MEAN_MOTION":"15.08845253"}];
